#aV2015  2 24  0  0  0.00000000     288 DD+AD WGS84 FIT  NGA
## 1833 172800.00000000   300.00000000 57077 0.0000000000000
+   31     1  2  3  4  5  6  7  8  9 10 11 12 13 14 15 16 17
+         18 19 20 21 22 23 24 25 27 28 29 30 31 32  0  0  0
+          0  0  0  0  0  0  0  0  0  0  0  0  0  0  0  0  0
+          0  0  0  0  0  0  0  0  0  0  0  0  0  0  0  0  0
+          0  0  0  0  0  0  0  0  0  0  0  0  0  0  0  0  0
++         2  2  2  2  2  2  2  2  2  2  2  2  2  2  2  2  2
++         2  2  2  2  2  2  2  2  2  2  2  2  2  2  0  0  0
++         0  0  0  0  0  0  0  0  0  0  0  0  0  0  0  0  0
++         0  0  0  0  0  0  0  0  0  0  0  0  0  0  0  0  0
++         0  0  0  0  0  0  0  0  0  0  0  0  0  0  0  0  0
%c cc cc ccc ccc cccc cccc cccc cccc ccccc ccccc ccccc ccccc
%c cc cc ccc ccc cccc cccc cccc cccc ccccc ccccc ccccc ccccc
%f  0.0000000  0.000000000  0.00000000000  0.000000000000000
%f  0.0000000  0.000000000  0.00000000000  0.000000000000000
%i    0    0    0    0      0      0      0      0         0
%i    0    0    0    0      0      0      0      0         0
/*      NGA, ST. LOUIS,MO.                                  
/*   EPHEMERIS COMPUTED FROM  1 DAYS OF DATA                
/*   EPOCHA SMOOTHER                                       
/* CCCCCCCCCCCCCCCCCCCCCCCCCCCCCCCCCCCCCCCCCCCCCCCCCCCCCCCCC
*  2015  2 24  7 10  0.00000000
P  1  19891.591086   8700.352761  15367.266643     -8.660893                    
V  1  10204.996713  16756.294585 -22453.289609      0.004356                    
P  2 -13673.328490 -22620.788579   4861.224239    549.851209                    
V  2   5837.574612   2587.196340  30206.117301      0.023046                    
P  3  16364.493334  -1134.956057  20904.664216    225.660264                    
V  3  -9555.381429  24755.138183   8782.189980      0.195569                    
P  4  19434.134988  16890.331898   6742.052235     -7.784917                    
V  4   3017.470285   8978.014379 -29532.388175     -0.007565                    
P  5  -6495.653717 -18335.742753 -18061.001324   -274.931642                    
V  5  10480.850137 -20483.673116  17251.806790      0.050524                    
P  6  -1663.633609 -20915.880267  16289.932951     91.085731                    
V  6  14000.634778  15336.261534  21100.617293      0.110347                    
P  7  15032.170723  -4199.875877 -21440.906006    442.823676                    
V  7  15711.763379  22411.048322   6246.495996      0.030803                    
P  8  10111.798683  24429.890530   5131.037552     17.925891                    
V  8  -4032.435430  -4753.156194  31225.619672      0.003437                    
P  9  24599.467280  -7733.135876  -6400.376997    -96.058680                    
V  9   8405.789372   1709.080651  30275.012789     -0.109259                    
P 10   8267.631883 -24848.663332  -3092.950089   -164.706364                    
V 10   4825.375461  -1761.829805  31269.861059     -0.016123                    
P 11  23808.595633  10098.593479   5842.312313   -560.022941                    
V 11   4186.523734   8401.945726 -28849.782612     -0.026361                    
P 12 -14618.065004  -2759.985401  21898.655209    271.792186                    
V 12  11627.275129 -25421.204853   4755.096796      0.029785                    
P 13 -13358.601752 -12798.695186 -19162.284645    -91.087620                    
V 13  23994.943292  -1573.513498 -15919.615091     -0.035257                    
P 14  -9587.958180  14479.346753  20286.144129     84.544868                    
V 14 -25290.677853    211.248070 -12387.136392     -0.034879                    
P 15 -23795.753048  -4442.381699 -11372.085067   -234.111741                    
V 15  13563.859269  -5229.548141 -26224.391270     -0.022236                    
P 16   4612.328591  18234.397055 -18654.070630   -153.584684                    
V 16 -11600.257830  20619.363990  17709.299843      0.033577                    
P 17  11927.963643 -14171.049430  19244.735804   -157.620038                    
V 17  23890.711852   -685.332219 -15758.091040     -0.020910                    
P 18 -15322.066201  19061.494456  -9492.653483    381.842826                    
V 18   1195.295515 -13410.511420 -27792.951922      0.027800                    
P 19  20804.617072   9170.097193 -14278.425476   -501.705193                    
V 19 -17575.601312   2158.778944 -24076.029697     -0.014070                    
P 20  11094.545637 -23770.598507   3794.822617    293.074308                    
V 20   2068.439225   6056.603837  30523.873348      0.040761                    
P 21 -12274.473456   9414.459921 -20906.799111   -419.980320                    
V 21 -17529.972719 -22182.593014    -93.122684     -0.040176                    
P 22  -8749.285262  24941.682094   1552.410598    321.760353                    
V 22  -4484.467709     69.859690 -30926.033364      0.040580                    
P 23  26521.665417   -356.089968   3922.965691    -90.927832                    
V 23  -4401.239329   3316.158748  30694.073627     -0.025973                    
P 24 -20379.849968 -11160.262520  12967.155465    -43.959711                    
V 24  -8308.948113 -14413.192509 -25263.853129     -0.005851                    
P 25 -17011.129781  11372.443576  16760.627851     -6.115256                    
V 25   6831.766456 -20411.630908  20836.543748     -0.029010                    
P 27  11101.884239  12827.982608 -20469.837769     53.626117                    
V 27 -25601.997687   4203.049624 -11160.338737      0.026496                    
P 28  12887.804158 -23042.429617  -1736.712004    421.688719                    
V 28    493.028647   3573.894068 -32325.762799      0.026770                    
P 29 -26052.371185   3979.688742  -3065.249747    594.032815                    
V 29  -4099.791305  -2191.126929  31716.711141      0.022826                    
P 30   7924.015555 -14620.768664 -20707.716490    -83.372505                    
V 30  15031.889448  21599.725679  -9549.043209      0.017435                    
P 31   3472.434883  21881.294267  14528.173698    322.588348                    
V 31 -12174.522552 -13820.263900  24281.100051     -0.008931                    
P 32   8961.126738  14588.541240  20421.007571   -216.187654                    
V 32 -12663.459654  22572.516004 -10023.924674      0.091772                    
EOF
